BEIDOU-2 IGSO-1 (C06)   
1 36828U 10036A   24313.58686132 -.00000072  00000+0  00000+0 0  9997
2 36828  54.2549 168.2570 0042722 205.8704 351.4772  1.00288854 52226
BEIDOU-2 G4 (C04)       
1 37210U 10057A   24313.74769778 -.00000101  00000+0  00000+0 0  9995
2 37210   2.1935  69.9970 0009134 175.3517 232.1871  1.00269427 51428
BEIDOU-2 IGSO-2 (C07)   
1 37256U 10068A   24313.81443557 -.00000192  00000+0  00000+0 0  9999
2 37256  48.6170 279.0549 0038785 218.7607 310.1438  1.00256190 50929
BEIDOU-2 IGSO-3 (C08)   
1 37384U 11013A   24313.68542528 -.00000185  00000+0  00000+0 0  9997
2 37384  61.5666  45.7258 0032220 179.2477 177.9809  1.00272213 49781
BEIDOU-2 IGSO-4 (C09)   
1 37763U 11038A   24313.53677586  .00000019  00000+0  00000+0 0  9997
2 37763  54.5611 170.9040 0129390 228.5595 298.2232  1.00277602 48770
BEIDOU-2 IGSO-5 (C10)   
1 37948U 11073A   24313.85407185 -.00000149  00000+0  00000+0 0  9997
2 37948  48.7519 278.7499 0101718 222.2343 309.6484  1.00259645 47264
BEIDOU-2 G5 (C05)       
1 38091U 12008A   24313.87063368  .00000068  00000+0  00000+0 0  9998
2 38091   2.1140  70.8023 0009588 220.5864 129.3275  1.00274086 46498
BEIDOU-2 M3 (C11)       
1 38250U 12018A   24312.29912217 -.00000036  00000+0  00000+0 0  9993
2 38250  56.2377 324.5722 0025516 265.3964  94.3464  1.86233543 85366
BEIDOU-2 M4 (C12)       
1 38251U 12018B   24311.15555914 -.00000040  00000+0  00000+0 0  9990
2 38251  56.1439 323.8711 0016382 266.8272  93.0186  1.86232005 84991
BEIDOU-2 M6 (C14)       
1 38775U 12050B   24312.47601729  .00000029  00000+0  00000+0 0  9995
2 38775  56.0328  82.3793 0010454 344.2175  15.7398  1.86230929 82382
BEIDOU-2 G6 (C02)       
1 38953U 12059A   24313.87558587 -.00000163  00000+0  00000+0 0  9990
2 38953   2.9264  79.3032 0006697 292.9122  75.5699  1.00268840 44044
BEIDOU-3S IGSO-1S (C31) 
1 40549U 15019A   24313.44891578 -.00000165  00000+0  00000+0 0  9998
2 40549  50.3074 302.4825 0035724 199.0464 165.1431  1.00272495 35202
BEIDOU-3S M2S (C58)     
1 40748U 15037A   24313.50373424 -.00000034  00000+0  00000+0 0  9996
2 40748  55.3701 322.1226 0013260 257.3503 102.5332  1.86229075 63219
BEIDOU-3S M1S (C57)     
1 40749U 15037B   24313.23988943 -.00000034  00000+0  00000+0 0  9995
2 40749  55.3731 322.1182 0004045 317.4842  42.5163  1.86227506 63211
BEIDOU-3S IGSO-2S (C56) 
1 40938U 15053A   24313.77988035 -.00000142  00000+0  00000+0 0  9994
2 40938  50.1373 265.7147 0052079 189.8135 330.3976  1.00272884 33486
BEIDOU-2 IGSO-6 (C13)   
1 41434U 16021A   24313.71370631 -.00000162  00000+0  00000+0 0  9995
2 41434  59.3938  43.9012 0054711 223.9836 133.4377  1.00286477 31608
BEIDOU-2 G7 (C03)       
1 41586U 16037A   24314.02389428 -.00000343  00000+0  00000+0 0  9990
2 41586   1.7241  66.8368 0007104 347.1800 113.8646  1.00273349 30914
BEIDOU-3 M1 (C19)       
1 43001U 17069A   24313.31579519  .00000032  00000+0  00000+0 0  9997
2 43001  56.1830  82.4670 0007611 298.7464  61.1689  1.86231098 47690
BEIDOU-3 M2 (C20)       
1 43002U 17069B   24313.79031858  .00000032  00000+0  00000+0 0  9999
2 43002  56.1829  82.4868 0005346 333.5686  26.3963  1.86230845 47692
BEIDOU-3 M7 (C27)       
1 43107U 18003A   24313.00119082 -.00000036  00000+0  00000+0 0  9999
2 43107  54.8290 322.6675 0002183  68.5900 291.4654  1.86232377 46435
BEIDOU-3 M8 (C28)       
1 43108U 18003B   24313.47977562 -.00000036  00000+0  00000+0 0  9996
2 43108  54.8216 322.6357 0005249 262.6454  97.3272  1.86230832 46453
BEIDOU-3 M4 (C22)       
1 43207U 18018A   24312.84696137  .00000031  00000+0  00000+0 0  9992
2 43207  56.1411  82.5669 0003766  22.9889 337.0187  1.86231050 45826
BEIDOU-3 M3 (C21)       
1 43208U 18018B   24313.45053733  .00000032  00000+0  00000+0 0  9991
2 43208  56.1411  82.5511 0005208 314.8359  45.1136  1.86231095 45832
BEIDOU-3 M9 (C29)       
1 43245U 18029A   24313.13356661 -.00000034  00000+0  00000+0 0  9998
2 43245  54.7079 320.3572 0002345 259.9590 100.0437  1.86232508 44982
BEIDOU-3 M10 (C30)      
1 43246U 18029B   24312.52609079 -.00000035  00000+0  00000+0 0  9996
2 43246  54.7057 320.4052 0003506 342.5602  17.4564  1.86232781 44969
BEIDOU-2 IGSO-7 (C16)   
1 43539U 18057A   24313.57939800 -.00000080  00000+0  00000+0 0  9996
2 43539  55.1486 168.1303 0077919 232.2744 329.5953  1.00267582 23264
BEIDOU-3 M5 (C23)       
1 43581U 18062A   24313.28834757  .00000027  00000+0  00000+0 0  9992
2 43581  54.1155 202.2305 0002605 319.9722  40.0882  1.86228637 42724
BEIDOU-3 M6 (C24)       
1 43582U 18062B   24313.15343014  .00000028  00000+0  00000+0 0  9991
2 43582  54.1152 202.2245 0006683  32.7525 327.3690  1.86229732 42721
BEIDOU-3 M12 (C26)      
1 43602U 18067A   24313.08709655  .00000029  00000+0  00000+0 0  9999
2 43602  54.2066 200.9210 0008304  31.1449 328.9860  1.86227637 42207
BEIDOU-3 M11 (C25)      
1 43603U 18067B   24313.22053554  .00000029  00000+0  00000+0 0  9996
2 43603  54.2037 200.8813 0004978  25.0487 335.0567  1.86227103 42235
BEIDOU-3 M13 (C32)      
1 43622U 18072A   24313.71850832  .00000031  00000+0  00000+0 0  9994
2 43622  56.1142  82.0643 0004437 292.9562  66.9891  1.86231059 41755
BEIDOU-3 M14 (C33)      
1 43623U 18072B   24313.04701882  .00000030  00000+0  00000+0 0  9990
2 43623  56.1156  82.0800 0002241 345.1716  14.8131  1.86231041 41737
BEIDOU-3 M16 (C35)      
1 43647U 18078A   24313.20888321 -.00000034  00000+0  00000+0 0  9999
2 43647  54.6042 320.4406 0006410   7.1319 352.9066  1.86232128 41243
BEIDOU-3 M15 (C34)      
1 43648U 18078B   24313.33800948 -.00000034  00000+0  00000+0 0  9993
2 43648  54.5998 320.4384 0003099   2.7565 357.2746  1.86232134 41264
BEIDOU-3 G1 (C59)       
1 43683U 18085A   24314.17264428 -.00000265  00000+0  00000+0 0  9996
2 43683   2.5470 104.3927 0002213  45.0134 101.5975  1.00275225 22180
BEIDOU-3 M17 (C36)      
1 43706U 18093A   24312.95349614  .00000028  00000+0  00000+0 0  9992
2 43706  54.1985 202.1908 0007431 296.0120  63.9923  1.86228299 40622
BEIDOU-3 M18 (C37)      
1 43707U 18093B   24313.35461096  .00000027  00000+0  00000+0 0  9996
2 43707  54.1994 202.1691 0006769 332.8684  27.1757  1.86229836 40624
BEIDOU-3 IGSO-1 (C38)   
1 44204U 19023A   24313.72247159 -.00000216  00000+0  00000+0 0  9997
2 44204  57.8564  43.7198 0025062 209.6130 172.8614  1.00258029  1343
BEIDOU-2 G8 (C01)       
1 44231U 19027A   24313.81615962 -.00000235  00000+0  00000+0 0  9993
2 44231   1.8335  74.6180 0004219 191.6071 220.6672  1.00272069 20209
BEIDOU-3 IGSO-2 (C39)   
1 44337U 19035A   24313.49360212 -.00000078  00000+0  00000+0 0  9993
2 44337  55.1848 164.0045 0034791 200.8684 337.5149  1.00252008 19792
BEIDOU-3 M24 (C46)      
1 44542U 19061A   24312.88763018  .00000028  00000+0  00000+0 0  9997
2 44542  54.4263 202.5078 0008891   9.2091 350.8880  1.86229373 34871
BEIDOU-3 M23 (C45)      
1 44543U 19061B   24314.24729956  .00000026  00000+0  00000+0 0  9991
2 44543  54.4246 202.4307 0005611   3.7797 100.4946  1.86229455 34891
BEIDOU-3 IGSO-3 (C40)   
1 44709U 19073A   24313.33655178 -.00000172  00000+0  00000+0 0  9994
2 44709  55.8084 287.1949 0040613 190.9267 168.9473  1.00258325 18580
BEIDOU-3 M22 (C44)      
1 44793U 19078A   24312.19516543 -.00000036  00000+0  00000+0 0  9996
2 44793  54.4524 320.3904 0005045  11.0816 348.9578  1.86232043 33723
BEIDOU-3 M21 (C43)      
1 44794U 19078B   24311.25069191 -.00000039  00000+0  00000+0 0  9998
2 44794  54.4270 320.3963 0003235 353.2030   6.8204  1.86232575 33709
BEIDOU-3 M19 (C41)      
1 44864U 19090A   24313.05785091  .00000031  00000+0  00000+0 0  9995
2 44864  56.0473  82.2501 0016178 278.2859  45.5241  1.86231411 33313
BEIDOU-3 M20 (C42)      
1 44865U 19090B   24313.48106462  .00000031  00000+0  00000+0 0  9992
2 44865  56.0495  82.2696 0013527 292.1662  45.0836  1.86231344 33304
BEIDOU-3 G2 (C60)       
1 45344U 20017A   24313.87480395 -.00000131  00000+0  00000+0 0  9991
2 45344   2.5132  34.6515 0004080 207.1585 201.7113  1.00272238 17399
BEIDOU-3 G3 (C61)       
1 45807U 20040A   24314.02380741 -.00000343  00000+0  00000+0 0  9998
2 45807   1.0578  55.3605 0003257 298.1797 174.2938  1.00268632 16213
BEIDOU-3 G4 (C62)       
1 56564U 23066A   24313.89070309 -.00000102  00000+0  00000+0 0  9994
2 56564   1.7672 288.8757 0005055 250.1098 350.3158  1.00271574  5531
BEIDOU-3 M28 (C50)      
1 58654U 23207A   24312.94446786  .00000029  00000+0  00000+0 0  9991
2 58654  55.2329  82.1691 0001406 225.2478 134.7320  1.86231995  5924
BEIDOU-3 M26 (C48)      
1 58655U 23207B   24313.81764706  .00000029  00000+0  00000+0 0  9994
2 58655  55.2354  82.1251 0002917 223.8919 136.0773  1.86231461  5922
